start=new Date('2021-10-19T00:00:00.000Z').valueOf();
sats=[{"FILE":"3170620","SITE":"AFETR","MEAN_MOTION_DOT":"0.00003037","MEAN_MOTION_DDOT":"0.0000000000000","GP_ID":"187534204","ECCENTRICITY":"0.00017490","OBJECT_TYPE":"PAYLOAD","OBJECT_NAME":"STARLINK-1378","EPHEMERIS_TYPE":"0","REF_FRAME":"TEME","MEAN_MOTION":"15.06405415","PERIOD":"95.592","SEMIMAJOR_AXIS":"6925.332","EPOCH":"2021-10-18T20:58:56.466624","BSTAR":"0.00022264000000","COUNTRY_CODE":"US","LAUNCH_DATE":"2020-04-22","CENTER_NAME":"EARTH","RA_OF_ASC_NODE":"101.9426","PERIAPSIS":"545.986","MEAN_ELEMENT_THEORY":"SGP4","OBJECT_ID":"2020-025T","REV_AT_EPOCH":"8350","DECAY_DATE":null,"INCLINATION":"53.0543","RCS_SIZE":"LARGE","APOAPSIS":"548.408","TLE_LINE1":"1 45548U 20025T   21291.87426466  .00003037  00000-0  22264-3 0  9995","TLE_LINE2":"2 45548  53.0543 101.9426 0001749  86.0568 274.0621 15.06405415 83504","CLASSIFICATION_TYPE":"U","NORAD_CAT_ID":"45548","ELEMENT_SET_NO":"999","TIME_SYSTEM":"UTC","ARG_OF_PERICENTER":"86.0568","MEAN_ANOMALY":"274.0621"},{"NORAD_CAT_ID":"45549","CLASSIFICATION_TYPE":"U","MEAN_ANOMALY":"268.6505","ARG_OF_PERICENTER":"91.4664","ELEMENT_SET_NO":"999","TIME_SYSTEM":"UTC","RCS_SIZE":"LARGE","DECAY_DATE":null,"INCLINATION":"53.0533","OBJECT_ID":"2020-025U","REV_AT_EPOCH":"8350","TLE_LINE1":"1 45549U 20025U   21291.87794065  .00001028  00000-0  87934-4 0  9993","TLE_LINE2":"2 45549  53.0533 101.9241 0001571  91.4664 268.6505 15.06398410 83505","APOAPSIS":"548.306","EPOCH":"2021-10-18T21:04:14.072160","BSTAR":"0.00008793400000","COUNTRY_CODE":"US","PERIOD":"95.592","SEMIMAJOR_AXIS":"6925.353","MEAN_ELEMENT_THEORY":"SGP4","PERIAPSIS":"546.130","RA_OF_ASC_NODE":"101.9241","LAUNCH_DATE":"2020-04-22","CENTER_NAME":"EARTH","ECCENTRICITY":"0.00015710","GP_ID":"187534454","MEAN_MOTION_DOT":"0.00001028","MEAN_MOTION_DDOT":"0.0000000000000","SITE":"AFETR","FILE":"3170620","MEAN_MOTION":"15.06398410","EPHEMERIS_TYPE":"0","REF_FRAME":"TEME","OBJECT_NAME":"STARLINK-1379","OBJECT_TYPE":"PAYLOAD"},{"GP_ID":"187535705","ECCENTRICITY":"0.00015680","MEAN_MOTION_DDOT":"0.0000000000000","MEAN_MOTION_DOT":"0.00000681","SITE":"AFETR","FILE":"3170620","MEAN_MOTION":"15.06403887","EPHEMERIS_TYPE":"0","REF_FRAME":"TEME","OBJECT_NAME":"STARLINK-1390","OBJECT_TYPE":"PAYLOAD","COUNTRY_CODE":"US","BSTAR":"0.00006458800000","EPOCH":"2021-10-18T19:48:32.491584","SEMIMAJOR_AXIS":"6925.337","PERIOD":"95.592","MEAN_ELEMENT_THEORY":"SGP4","PERIAPSIS":"546.116","RA_OF_ASC_NODE":"102.1634","CENTER_NAME":"EARTH","LAUNCH_DATE":"2020-04-22","RCS_SIZE":"LARGE","INCLINATION":"53.0545","DECAY_DATE":null,"REV_AT_EPOCH":"8349","OBJECT_ID":"2020-025V","TLE_LINE2":"2 45550  53.0545 102.1634 0001568  84.7769 275.3398 15.06403887 83494","TLE_LINE1":"1 45550U 20025V   21291.82537606  .00000681  00000-0  64588-4 0  9990","APOAPSIS":"548.288","NORAD_CAT_ID":"45550","CLASSIFICATION_TYPE":"U","MEAN_ANOMALY":"275.3398","ARG_OF_PERICENTER":"84.7769","ELEMENT_SET_NO":"999","TIME_SYSTEM":"UTC"},{"RA_OF_ASC_NODE":"81.8584","PERIAPSIS":"546.224","MEAN_ELEMENT_THEORY":"SGP4","LAUNCH_DATE":"2020-04-22","CENTER_NAME":"EARTH","EPOCH":"2021-10-18T21:28:06.336192","BSTAR":"-0.00004201400000","COUNTRY_CODE":"US","SEMIMAJOR_AXIS":"6925.363","PERIOD":"95.592","REF_FRAME":"TEME","EPHEMERIS_TYPE":"0","MEAN_MOTION":"15.06395201","OBJECT_TYPE":"PAYLOAD","OBJECT_NAME":"STARLINK-1294","MEAN_MOTION_DDOT":"0.0000000000000","MEAN_MOTION_DOT":"-0.00000907","ECCENTRICITY":"0.00014500","GP_ID":"187535956","FILE":"3170620","SITE":"AFETR","ARG_OF_PERICENTER":"89.5342","MEAN_ANOMALY":"270.5813","TIME_SYSTEM":"UTC","ELEMENT_SET_NO":"999","NORAD_CAT_ID":"45551","CLASSIFICATION_TYPE":"U","TLE_LINE1":"1 45551U 20025W   21291.89451778 -.00000907  00000-0 -42014-4 0  9996","TLE_LINE2":"2 45551  53.0559  81.8584 0001450  89.5342 270.5813 15.06395201 83799","APOAPSIS":"548.232","DECAY_DATE":null,"INCLINATION":"53.0559","RCS_SIZE":"LARGE","REV_AT_EPOCH":"8379","OBJECT_ID":"2020-025W"},{"BSTAR":"0.00411050000000","EPOCH":"2021-10-18T21:27:38.960352","COUNTRY_CODE":"US","PERIOD":"94.326","SEMIMAJOR_AXIS":"6864.048","MEAN_ELEMENT_THEORY":"SGP4","RA_OF_ASC_NODE":"78.4038","PERIAPSIS":"484.954","LAUNCH_DATE":"2020-04-22","CENTER_NAME":"EARTH","GP_ID":"187534704","ECCENTRICITY":"0.00013980","MEAN_MOTION_DDOT":"0.0000000000000","MEAN_MOTION_DOT":"0.00110429","SITE":"AFETR","FILE":"3170620","MEAN_MOTION":"15.26624603","EPHEMERIS_TYPE":"0","REF_FRAME":"TEME","OBJECT_NAME":"STARLINK-1322","OBJECT_TYPE":"PAYLOAD","NORAD_CAT_ID":"45552","CLASSIFICATION_TYPE":"U","ARG_OF_PERICENTER":"116.8923","MEAN_ANOMALY":"243.2218","ELEMENT_SET_NO":"999","TIME_SYSTEM":"UTC","RCS_SIZE":"LARGE","DECAY_DATE":null,"INCLINATION":"53.0555","OBJECT_ID":"2020-025X","REV_AT_EPOCH":"8383","TLE_LINE1":"1 45552U 20025X   21291.89420093  .00110429  00000-0  41105-2 0  9990","TLE_LINE2":"2 45552  53.0555  78.4038 0001398 116.8923 243.2218 15.26624603 83836","APOAPSIS":"486.873"},{"INCLINATION":"53.0554","DECAY_DATE":null,"RCS_SIZE":"LARGE","OBJECT_ID":"2020-025Y","REV_AT_EPOCH":"8250","TLE_LINE2":"2 45553  53.0554  81.8030 0001709  96.3711 263.7473 15.06395550 82506","TLE_LINE1":"1 45553U 20025Y   21291.90560062  .00001610  00000-0  12695-3 0  9998","APOAPSIS":"548.411","NORAD_CAT_ID":"45553","CLASSIFICATION_TYPE":"U","ARG_OF_PERICENTER":"96.3711","MEAN_ANOMALY":"263.7473","ELEMENT_SET_NO":"999","TIME_SYSTEM":"UTC","MEAN_MOTION_DOT":"0.00001610","MEAN_MOTION_DDOT":"0.0000000000000","GP_ID":"187534954","ECCENTRICITY":"0.00017090","FILE":"3170620","SITE":"AFETR","REF_FRAME":"TEME","EPHEMERIS_TYPE":"0","MEAN_MOTION":"15.06395550","OBJECT_TYPE":"PAYLOAD","OBJECT_NAME":"STARLINK-1323","COUNTRY_CODE":"US","EPOCH":"2021-10-18T21:44:03.893568","BSTAR":"0.00012695000000","PERIOD":"95.592","SEMIMAJOR_AXIS":"6925.362","PERIAPSIS":"546.044","RA_OF_ASC_NODE":"81.8030","MEAN_ELEMENT_THEORY":"SGP4","CENTER_NAME":"EARTH","LAUNCH_DATE":"2020-04-22"},{"MEAN_MOTION_DDOT":"0.0000000000000","MEAN_MOTION_DOT":"0.00000946","GP_ID":"187535206","ECCENTRICITY":"0.00013700","FILE":"3170620","SITE":"AFETR","REF_FRAME":"TEME","EPHEMERIS_TYPE":"0","MEAN_MOTION":"15.06395763","OBJECT_TYPE":"PAYLOAD","OBJECT_NAME":"STARLINK-1325","COUNTRY_CODE":"US","EPOCH":"2021-10-18T19:57:54.172800","BSTAR":"0.00008239100000","SEMIMAJOR_AXIS":"6925.362","PERIOD":"95.592","RA_OF_ASC_NODE":"82.1383","PERIAPSIS":"546.278","MEAN_ELEMENT_THEORY":"SGP4","CENTER_NAME":"EARTH","LAUNCH_DATE":"2020-04-22","INCLINATION":"53.0558","DECAY_DATE":null,"RCS_SIZE":"LARGE","OBJECT_ID":"2020-025Z","REV_AT_EPOCH":"8378","TLE_LINE2":"2 45554  53.0558  82.1383 0001370  96.1674 263.9471 15.06395763 83783","TLE_LINE1":"1 45554U 20025Z   21291.83187700  .00000946  00000-0  82391-4 0  9997","APOAPSIS":"548.175","NORAD_CAT_ID":"45554","CLASSIFICATION_TYPE":"U","ARG_OF_PERICENTER":"96.1674","MEAN_ANOMALY":"263.9471","TIME_SYSTEM":"UTC","ELEMENT_SET_NO":"999"},{"CENTER_NAME":"EARTH","LAUNCH_DATE":"2020-04-22","MEAN_ELEMENT_THEORY":"SGP4","RA_OF_ASC_NODE":"82.8984","PERIAPSIS":"546.177","PERIOD":"95.593","SEMIMAJOR_AXIS":"6925.379","COUNTRY_CODE":"US","BSTAR":"-0.00004120900000","EPOCH":"2021-10-18T15:53:43.440576","OBJECT_NAME":"STARLINK-1327","OBJECT_TYPE":"PAYLOAD","MEAN_MOTION":"15.06390052","REF_FRAME":"TEME","EPHEMERIS_TYPE":"0","SITE":"AFETR","FILE":"3170620","GP_ID":"187535457","ECCENTRICITY":"0.00015410","MEAN_MOTION_DDOT":"0.0000000000000","MEAN_MOTION_DOT":"-0.00000895","ELEMENT_SET_NO":"999","TIME_SYSTEM":"UTC","ARG_OF_PERICENTER":"81.9940","MEAN_ANOMALY":"278.1223","CLASSIFICATION_TYPE":"U","NORAD_CAT_ID":"45555","APOAPSIS":"548.311","TLE_LINE2":"2 45555  53.0558  82.8984 0001541  81.9940 278.1223 15.06390052 83752","TLE_LINE1":"1 45555U 20025AA  21291.66230834 -.00000895  00000-0 -41209-4 0  9994","OBJECT_ID":"2020-025AA","REV_AT_EPOCH":"8375","RCS_SIZE":"LARGE","INCLINATION":"53.0558","DECAY_DATE":null},{"ARG_OF_PERICENTER":"87.0946","MEAN_ANOMALY":"273.0253","ELEMENT_SET_NO":"999","TIME_SYSTEM":"UTC","NORAD_CAT_ID":"45556","CLASSIFICATION_TYPE":"U","TLE_LINE1":"1 45556U 20025AB  21291.83553574  .00001240  00000-0  10210-3 0  9993","TLE_LINE2":"2 45556  53.0550  82.1193 0001840  87.0946 273.0253 15.06405332 83783","APOAPSIS":"548.471","RCS_SIZE":"LARGE","DECAY_DATE":null,"INCLINATION":"53.0550","REV_AT_EPOCH":"8378","OBJECT_ID":"2020-025AB","MEAN_ELEMENT_THEORY":"SGP4","PERIAPSIS":"545.923","RA_OF_ASC_NODE":"82.1193","LAUNCH_DATE":"2020-04-22","CENTER_NAME":"EARTH","EPOCH":"2021-10-18T20:03:10.287936","BSTAR":"0.00010210000000","COUNTRY_CODE":"US","PERIOD":"95.592","SEMIMAJOR_AXIS":"6925.332","MEAN_MOTION":"15.06405332","EPHEMERIS_TYPE":"0","REF_FRAME":"TEME","OBJECT_NAME":"STARLINK-1334","OBJECT_TYPE":"PAYLOAD","ECCENTRICITY":"0.00018400","GP_ID":"187534205","MEAN_MOTION_DDOT":"0.0000000000000","MEAN_MOTION_DOT":"0.00001240","SITE":"AFETR","FILE":"3170620"},{"ELEMENT_SET_NO":"999","TIME_SYSTEM":"UTC","MEAN_ANOMALY":"268.4257","ARG_OF_PERICENTER":"91.6937","CLASSIFICATION_TYPE":"U","NORAD_CAT_ID":"45557","APOAPSIS":"548.471","TLE_LINE2":"2 45557  53.0557  82.0855 0001789  91.6937 268.4257 15.06393934 83784","TLE_LINE1":"1 45557U 20025AC  21291.84291911 -.00000828  00000-0 -36706-4 0  9991","REV_AT_EPOCH":"8378","OBJECT_ID":"2020-025AC","RCS_SIZE":"LARGE","INCLINATION":"53.0557","DECAY_DATE":null,"CENTER_NAME":"EARTH","LAUNCH_DATE":"2020-04-22","MEAN_ELEMENT_THEORY":"SGP4","PERIAPSIS":"545.993","RA_OF_ASC_NODE":"82.0855","PERIOD":"95.593","SEMIMAJOR_AXIS":"6925.367","COUNTRY_CODE":"US","EPOCH":"2021-10-18T20:13:48.211104","BSTAR":"-0.00003670600000","OBJECT_NAME":"STARLINK-1336","OBJECT_TYPE":"PAYLOAD","MEAN_MOTION":"15.06393934","REF_FRAME":"TEME","EPHEMERIS_TYPE":"0","SITE":"AFETR","FILE":"3170620","GP_ID":"187534455","ECCENTRICITY":"0.00017890","MEAN_MOTION_DOT":"-0.00000828","MEAN_MOTION_DDOT":"0.0000000000000"}];
